CS1                     
1 49261U 21088B   26068.75173904  .00015722  00000+0  51176-3 0  9998
2 49261  97.3882 132.1684 0014129  78.0335 282.2490 15.31848439245182
STARLINK-36080          
1 66801U 25278L   26068.55309670  .00020570  00000+0  75479-3 0  9990
2 66801  43.0031 115.5345 0002022 263.5318  96.5303 15.27585483 15181
